{
  "type": "FeatureCollection",
  "features": [
    {
      "type": "Feature",
      "properties": {
        "norad_id": 66612,
        "name": "STARLINK-36039",
        "group": "last-30-days",
        "lat": 22.666743208264805,
        "lon": -144.06931069094085,
        "alt_km": 433.8277970300878,
        "timestamp": "2025-12-13T07:35:40.337378+00:00",
        "meta_object_name": "STARLINK-36039",
        "meta_object_id": "2025-270AA",
        "meta_epoch": "2025-12-12T20:00:01.999872",
        "meta_mean_motion": 15.4535857,
        "meta_eccentricity": 0.00012665,
        "meta_inclination": 42.9992,
        "meta_ra_of_asc_node": 192.1031,
        "meta_arg_of_pericenter": 255.1423,
        "meta_mean_anomaly": 330.4922,
        "meta_ephemeris_type": 0,
        "meta_classification_type": "U",
        "meta_norad_cat_id": 66612,
        "meta_element_set_no": 999,
        "meta_rev_at_epoch": 441,
        "meta_bstar": -0.047261468,
        "meta_mean_motion_dot": -0.02053608,
        "meta_mean_motion_ddot": 0,
        "tle_line1": "1 66612U 25270AA  25346.83335648 -.02053608  00000+0 -47261-1 0  9993",
        "tle_line2": "2 66612  42.9992 192.1031 0001266 255.1423 330.4922 15.45358570  4417"
      },
      "geometry": {
        "type": "Point",
        "coordinates": [
          -144.06931069094085,
          22.666743208264805
        ]
      }
    },
    {
      "type": "Feature",
      "properties": {
        "norad_id": 66613,
        "name": "STARLINK-36037",
        "group": "last-30-days",
        "lat": 31.565870501785046,
        "lon": -129.4862465465722,
        "alt_km": 423.9496577365826,
        "timestamp": "2025-12-13T07:35:40.337414+00:00",
        "meta_object_name": "STARLINK-36037",
        "meta_object_id": "2025-270AB",
        "meta_epoch": "2025-12-12T20:00:01.999872",
        "meta_mean_motion": 15.4828678,
        "meta_eccentricity": 0.0001338,
        "meta_inclination": 42.9995,
        "meta_ra_of_asc_node": 192.077,
        "meta_arg_of_pericenter": 267.5762,
        "meta_mean_anomaly": 328.7091,
        "meta_ephemeris_type": 0,
        "meta_classification_type": "U",
        "meta_norad_cat_id": 66613,
        "meta_element_set_no": 999,
        "meta_rev_at_epoch": 441,
        "meta_bstar": -0.043492075,
        "meta_mean_motion_dot": -0.02089217,
        "meta_mean_motion_ddot": 0,
        "tle_line1": "1 66613U 25270AB  25346.83335648 -.02089217  00000+0 -43492-1 0  9991",
        "tle_line2": "2 66613  42.9995 192.0770 0001338 267.5762 328.7091 15.48286780  4416"
      },
      "geometry": {
        "type": "Point",
        "coordinates": [
          -129.4862465465722,
          31.565870501785046
        ]
      }
    },
    {
      "type": "Feature",
      "properties": {
        "norad_id": 66614,
        "name": "STARLINK-36040",
        "group": "last-30-days",
        "lat": 37.01600408079523,
        "lon": -116.75013729972746,
        "alt_km": 410.12577800815507,
        "timestamp": "2025-12-13T07:35:40.337424+00:00",
        "meta_object_name": "STARLINK-36040",
        "meta_object_id": "2025-270AC",
        "meta_epoch": "2025-12-12T20:00:01.999872",
        "meta_mean_motion": 15.50570352,
        "meta_eccentricity": 0.00015787,
        "meta_inclination": 42.9995,
        "meta_ra_of_asc_node": 192.0631,
        "meta_arg_of_pericenter": 277.4452,
        "meta_mean_anomaly": 324.8127,
        "meta_ephemeris_type": 0,
        "meta_classification_type": "U",
        "meta_norad_cat_id": 66614,
        "meta_element_set_no": 999,
        "meta_rev_at_epoch": 425,
        "meta_bstar": -0.00076212295,
        "meta_mean_motion_dot": -0.00044783,
        "meta_mean_motion_ddot": 0,
        "tle_line1": "1 66614U 25270AC  25346.83335648 -.00044783  00000+0 -76212-3 0  9997",
        "tle_line2": "2 66614  42.9995 192.0631 0001578 277.4452 324.8127 15.50570352  4258"
      },
      "geometry": {
        "type": "Point",
        "coordinates": [
          -116.75013729972746,
          37.01600408079523
        ]
      }
    },
    {
      "type": "Feature",
      "properties": {
        "norad_id": 66615,
        "name": "STARLINK-35988",
        "group": "last-30-days",
        "lat": 36.237235229868986,
        "lon": -118.89992301052771,
        "alt_km": 410.3883448428487,
        "timestamp": "2025-12-13T07:35:40.337432+00:00",
        "meta_object_name": "STARLINK-35988",
        "meta_object_id": "2025-270AD",
        "meta_epoch": "2025-12-12T20:00:01.999872",
        "meta_mean_motion": 15.50631732,
        "meta_eccentricity": 0.00017203,
        "meta_inclination": 42.9996,
        "meta_ra_of_asc_node": 192.0669,
        "meta_arg_of_pericenter": 266.3788,
        "meta_mean_anomaly": 333.9199,
        "meta_ephemeris_type": 0,
        "meta_classification_type": "U",
        "meta_norad_cat_id": 66615,
        "meta_element_set_no": 999,
        "meta_rev_at_epoch": 425,
        "meta_bstar": -0.0015590831,
        "meta_mean_motion_dot": -0.00090924,
        "meta_mean_motion_ddot": 0,
        "tle_line1": "1 66615U 25270AD  25346.83335648 -.00090924  00000+0 -15591-2 0  9998",
        "tle_line2": "2 66615  42.9996 192.0669 0001720 266.3788 333.9199 15.50631732  4259"
      },
      "geometry": {
        "type": "Point",
        "coordinates": [
          -118.89992301052771,
          36.237235229868986
        ]
      }
    },
    {
      "type": "Feature",
      "properties": {
        "norad_id": 66616,
        "name": "STARLINK-35391",
        "group": "last-30-days",
        "lat": 37.76358483356618,
        "lon": -114.53198774428515,
        "alt_km": 410.1130230924673,
        "timestamp": "2025-12-13T07:35:40.337441+00:00",
        "meta_object_name": "STARLINK-35391",
        "meta_object_id": "2025-270AE",
        "meta_epoch": "2025-12-12T20:00:01.999872",
        "meta_mean_motion": 15.50585879,
        "meta_eccentricity": 0.00016373,
        "meta_inclination": 42.9995,
        "meta_ra_of_asc_node": 192.0584,
        "meta_arg_of_pericenter": 276.9134,
        "meta_mean_anomaly": 327.259,
        "meta_ephemeris_type": 0,
        "meta_classification_type": "U",
        "meta_norad_cat_id": 66616,
        "meta_element_set_no": 999,
        "meta_rev_at_epoch": 452,
        "meta_bstar": -0.0012916662,
        "meta_mean_motion_dot": -0.00075411,
        "meta_mean_motion_ddot": 0,
        "tle_line1": "1 66616U 25270AE  25346.83335648 -.00075411  00000+0 -12917-2 0  9992",
        "tle_line2": "2 66616  42.9995 192.0584 0001637 276.9134 327.2590 15.50585879  4525"
      },
      "geometry": {
        "type": "Point",
        "coordinates": [
          -114.53198774428515,
          37.76358483356618
        ]
      }
    },
    {
      "type": "Feature",
      "properties": {
        "norad_id": 66617,
        "name": "STARLINK-35940",
        "group": "last-30-days",
        "lat": 47.32035872938342,
        "lon": -121.12820161273375,
        "alt_km": 411.85629028527455,
        "timestamp": "2025-12-13T07:35:40.337453+00:00",
        "meta_object_name": "STARLINK-35940",
        "meta_object_id": "2025-271A",
        "meta_epoch": "2025-12-12T20:00:01.999872",
        "meta_mean_motion": 15.4923067,
        "meta_eccentricity": 8.633e-05,
        "meta_inclination": 53.1594,
        "meta_ra_of_asc_node": 186.786,
        "meta_arg_of_pericenter": 73.6732,
        "meta_mean_anomaly": 177.2652,
        "meta_ephemeris_type": 0,
        "meta_classification_type": "U",
        "meta_norad_cat_id": 66617,
        "meta_element_set_no": 999,
        "meta_rev_at_epoch": 425,
        "meta_bstar": 0.001275147,
        "meta_mean_motion_dot": 0.0007092,
        "meta_mean_motion_ddot": 0,
        "tle_line1": "1 66617U 25271A   25346.83335648  .00070920  00000+0  12751-2 0  9998",
        "tle_line2": "2 66617  53.1594 186.7860 0000863  73.6732 177.2652 15.49230670  4254"
      },
      "geometry": {
        "type": "Point",
        "coordinates": [
          -121.12820161273375,
          47.32035872938342
        ]
      }
    },
    {
      "type": "Feature",
      "properties": {
        "norad_id": 66618,
        "name": "STARLINK-35970",
        "group": "last-30-days",
        "lat": 43.807471281588214,
        "lon": -41.62185809736876,
        "alt_km": 412.71252841169917,
        "timestamp": "2025-12-13T07:35:40.337462+00:00",
        "meta_object_name": "STARLINK-35970",
        "meta_object_id": "2025-271B",
        "meta_epoch": "2025-12-12T20:00:01.999872",
        "meta_mean_motion": 15.49191377,
        "meta_eccentricity": 7.537e-05,
        "meta_inclination": 53.1595,
        "meta_ra_of_asc_node": 186.6733,
        "meta_arg_of_pericenter": 72.5862,
        "meta_mean_anomaly": 231.6682,
        "meta_ephemeris_type": 0,
        "meta_classification_type": "U",
        "meta_norad_cat_id": 66618,
        "meta_element_set_no": 999,
        "meta_rev_at_epoch": 425,
        "meta_bstar": 0.0013219131,
        "meta_mean_motion_dot": 0.00073459,
        "meta_mean_motion_ddot": 0,
        "tle_line1": "1 66618U 25271B   25346.83335648  .00073459  00000+0  13219-2 0  9999",
        "tle_line2": "2 66618  53.1595 186.6733 0000753  72.5862 231.6682 15.49191377  4252"
      },
      "geometry": {
        "type": "Point",
        "coordinates": [
          -41.62185809736876,
          43.807471281588214
        ]
      }
    }
  ]
}